KAZSTSAT
1 43783U 18099AB  19066.16618464 -.00000034  00000-0  21997-5 0  9991
2 43783  97.7693 139.3312 0007620 308.1751  51.8781 14.93594204 13937
